[{"OBJECT_NAME":"BEIDOU-3 G3 (PRN 143)","OBJECT_ID":"2020-040A","EPOCH":"2026-04-05T18:24:18.647136","MEAN_MOTION":1.00269472,"ECCENTRICITY":0.0004619,"INCLINATION":2.2698,"RA_OF_ASC_NODE":67.2276,"ARG_OF_PERICENTER":329.1984,"MEAN_ANOMALY":184.2648,"EPHEMERIS_TYPE":0,"CLASSIFICATION_TYPE":"U","NORAD_CAT_ID":45807,"ELEMENT_SET_NO":999,"REV_AT_EPOCH":2134,"BSTAR":0,"MEAN_MOTION_DOT":-3.51e-6,"MEAN_MOTION_DDOT":0},{"OBJECT_NAME":"GALAXY 30 (WAAS/PRN 135)","OBJECT_ID":"2020-056C","EPOCH":"2026-04-05T17:17:10.087296","MEAN_MOTION":1.00271383,"ECCENTRICITY":0.0002368,"INCLINATION":0.0146,"RA_OF_ASC_NODE":195.6358,"ARG_OF_PERICENTER":186.1086,"MEAN_ANOMALY":306.557,"EPHEMERIS_TYPE":0,"CLASSIFICATION_TYPE":"U","NORAD_CAT_ID":46114,"ELEMENT_SET_NO":999,"REV_AT_EPOCH":2056,"BSTAR":0,"MEAN_MOTION_DOT":0,"MEAN_MOTION_DDOT":0},{"OBJECT_NAME":"QZS-1R (QZSS/PRN 196)","OBJECT_ID":"2021-096A","EPOCH":"2026-04-05T20:11:24.907200","MEAN_MOTION":1.00280626,"ECCENTRICITY":0.0750144,"INCLINATION":37.3138,"RA_OF_ASC_NODE":80.6479,"ARG_OF_PERICENTER":270.4087,"MEAN_ANOMALY":281.4223,"EPHEMERIS_TYPE":0,"CLASSIFICATION_TYPE":"U","NORAD_CAT_ID":49336,"ELEMENT_SET_NO":999,"REV_AT_EPOCH":1628,"BSTAR":0,"MEAN_MOTION_DOT":-2.37e-6,"MEAN_MOTION_DDOT":0},{"OBJECT_NAME":"QZS-6 (QZSS/PRN 200)","OBJECT_ID":"2025-023A","EPOCH":"2026-04-05T21:12:21.579840","MEAN_MOTION":1.00273812,"ECCENTRICITY":0.0002122,"INCLINATION":0.0323,"RA_OF_ASC_NODE":280.075,"ARG_OF_PERICENTER":108.3412,"MEAN_ANOMALY":214.3787,"EPHEMERIS_TYPE":0,"CLASSIFICATION_TYPE":"U","NORAD_CAT_ID":62876,"ELEMENT_SET_NO":999,"REV_AT_EPOCH":423,"BSTAR":0,"MEAN_MOTION_DOT":-2.32e-6,"MEAN_MOTION_DDOT":0}]
