BEIDOU-3 G3 (PRN 143)   
1 45807U 20040A   26095.76688249 -.00000351  00000+0  00000+0 0  9990
2 45807   2.2698  67.2276 0004619 329.1984 184.2648  1.00269472 21343
GALAXY 30 (WAAS/PRN 135)
1 46114U 20056C   26095.72025564  .00000000  00000+0  00000+0 0  9990
2 46114   0.0146 195.6358 0002368 186.1086 306.5570  1.00271383 20569
QZS-1R (QZSS/PRN 196)   
1 49336U 21096A   26095.84126050 -.00000237  00000+0  00000+0 0  9992
2 49336  37.3138  80.6479 0750144 270.4087 281.4223  1.00280626 16289
QZS-6 (QZSS/PRN 200)    
1 62876U 25023A   26095.88358310 -.00000232  00000+0  00000+0 0  9995
2 62876   0.0323 280.0750 0002122 108.3412 214.3787  1.00273812  4232
